GPS BIIA-23 (PRN 18)    
1 22877U 93068A   18197.46941515 -.00000054  00000-0  00000+0 0  9992
2 22877  54.4447  82.3021 0145725  75.6310 227.0365  2.00567172181137
GPS BIIR-2  (PRN 13)    
1 24876U 97035A   18196.94427543  .00000048  00000-0  00000+0 0  9995
2 24876  55.4870 211.6387 0030619  87.5405 272.8418  2.00564663153726
GPS BIIR-3  (PRN 11)    
1 25933U 99055A   18197.46957691 -.00000074  00000-0  00000+0 0  9994
2 25933  51.9076  60.4137 0167696 102.3911 203.1385  2.00566435137559
GPS BIIR-4  (PRN 20)    
1 26360U 00025A   18197.50397858  .00000008  00000-0  00000+0 0  9992
2 26360  53.2104 138.4448 0038068 119.0561 258.4618  2.00563561133249
GPS BIIR-5  (PRN 28)    
1 26407U 00040A   18197.38385687 -.00000070  00000-0  00000+0 0  9994
2 26407  56.4650 329.7546 0196929 272.9084 356.2878  2.00562794131921
GPS BIIR-6  (PRN 14)    
1 26605U 00071A   18197.40555875  .00000048  00000-0  00000+0 0  9993
2 26605  55.0604 209.2006 0102579 248.9583 301.3255  2.00571382129518
GPS BIIR-8  (PRN 16)    
1 27663U 03005A   18196.40800694 -.00000067  00000-0  00000+0 0  9991
2 27663  56.5296 329.5517 0098768  28.8733  15.7164  2.00565156113267
GPS BIIR-9  (PRN 21)    
1 27704U 03010A   18196.32238590 -.00000047  00000-0  00000+0 0  9992
2 27704  54.1149  81.9263 0245739 271.5989  30.4033  2.00563711112064
GPS BIIR-10 (PRN 22)    
1 28129U 03058A   18197.13774356  .00000010  00000-0  00000+0 0  9990
2 28129  53.0234 141.3091 0075065 273.4100  85.7042  2.00552224106779
GPS BIIR-11 (PRN 19)    
1 28190U 04009A   18197.14082074 -.00000076  00000-0  00000+0 0  9998
2 28190  56.1833  30.3613 0096383  70.1688 290.3975  2.00558604104957
GPS BIIR-12 (PRN 23)    
1 28361U 04023A   18197.41091734  .00000047  00000-0  00000+0 0  9994
2 28361  54.0620 203.9112 0128069 226.4831 245.8465  2.00552348103040
GPS BIIR-13 (PRN 02)    
1 28474U 04045A   18197.19513150 -.00000052  00000-0  00000+0 0  9996
2 28474  54.4832  81.5150 0181400 254.5391  61.4141  2.00551600100407
GPS BIIRM-1 (PRN 17)    
1 28874U 05038A   18197.38543418 -.00000077  00000-0  00000+0 0  9991
2 28874  56.3234  27.6654 0126059 258.3386 302.2893  2.00574263 93819
GPS BIIRM-2 (PRN 31)    
1 29486U 06042A   18197.34771705 -.00000010  00000-0  00000+0 0  9992
2 29486  55.1626 266.5008 0087962 351.3023 106.2444  2.00560732 86529
GPS BIIRM-3 (PRN 12)    
1 29601U 06052A   18195.16051842 -.00000065  00000-0  00000+0 0  9993
2 29601  56.5063 328.5170 0069425  56.5427 304.1165  2.00577304 85399
GPS BIIRM-4 (PRN 15)    
1 32260U 07047A   18196.97895130  .00000046  00000-0  00000+0 0  9997
2 32260  53.1865 199.9248 0102362  38.3289 322.4015  2.00551051 78812
GPS BIIRM-5 (PRN 29)    
1 32384U 07062A   18195.79020639 -.00000069  00000-0  00000+0 0  9990
2 32384  56.3975  28.3394 0006125  74.8668 282.6108  2.00565010 77515
GPS BIIRM-6 (PRN 07)    
1 32711U 08012A   18197.38657868 -.00000010  00000-0  00000+0 0  9993
2 32711  54.8969 265.7709 0120397 216.9093 142.3340  2.00565924 75737
GPS BIIRM-8 (PRN 05)    
1 35752U 09043A   18197.08997573  .00000014  00000-0  00000+0 0  9996
2 35752  54.3275 143.5396 0053567  34.3404 140.5712  2.00555010 65318
GPS BIIF-1  (PRN 25)    
1 36585U 10022A   18196.95040772 -.00000067  00000-0  00000+0 0  9994
2 36585  55.7949 324.9885 0072924  48.7454 129.3413  2.00569987 59556
GPS BIIF-2  (PRN 01)    
1 37753U 11036A   18197.46923123 -.00000049  00000-0  00000+0 0  9995
2 37753  55.6824  85.0658 0078531  36.5258 242.3642  2.00564391 51258
GPS BIIF-3  (PRN 24)    
1 38833U 12053A   18197.06849426 -.00000004  00000-0  00000+0 0  9995
2 38833  53.9276 262.3124 0068902  29.1717 331.2919  2.00567230 42314
GPS BIIF-4  (PRN 27)    
1 39166U 13023A   18196.92715487 -.00000076  00000-0  00000+0 0  9995
2 39166  56.0195  24.5703 0059131  23.7726 336.5326  2.00562265 37848
GPS BIIF-5  (PRN 30)    
1 39533U 14008A   18196.92713782 -.00000009  00000-0  00000+0 0  9999
2 39533  54.0711 267.6722 0036072 190.3302 169.6735  2.00558432 32204
GPS BIIF-6  (PRN 06)    
1 39741U 14026A   18196.70633800 -.00000044  00000-0  00000+0 0  9997
2 39741  55.6651  84.6190 0012632 294.8616  65.0653  2.00565007 30487
GPS BIIF-7  (PRN 09)    
1 40105U 14045A   18197.29577291  .00000048  00000-0  00000+0 0  9993
2 40105  54.5880 204.0361 0006732 110.2760 249.8117  2.00573654 28940
GPS BIIF-8  (PRN 03)    
1 40294U 14068A   18197.16991517  .00000017  00000-0  00000+0 0  9990
2 40294  55.0788 144.8259 0014495  20.2427 339.7842  2.00558055 27169
GPS BIIF-9  (PRN 26)    
1 40534U 15013A   18196.80581110 -.00000067  00000-0  00000+0 0  9998
2 40534  54.7350 323.6858 0027747   1.7097 358.3070  2.00561865 24227
GPS BIIF-10  (PRN 08)   
1 40730U 15033A   18196.96845879 -.00000078  00000-0  00000+0 0  9992
2 40730  55.5494  24.0616 0035516 333.5509  26.2996  2.00572871 21981
GPS BIIF-11  (PRN 10)   
1 41019U 15062A   18195.52315522  .00000010  00000-0  00000+0 0  9998
2 41019  55.0832 144.6951 0037204 205.3536 154.4274  2.00564307 19778
GPS BIIF-12  (PRN 32)   
1 41328U 16007A   18197.10664276  .00000049  00000-0  00000+0 0  9992
2 41328  54.8380 204.3419 0024092 219.7786 140.0610  2.00562032 17862
